{
    "links": {
        "self": "http://www.neowsapp.com/rest/v1/neo/3767251?api_key=iIulBulltgU6a56xZRHN4H3l9WmuAYTsLGpBGhQ2"
    },
    "id": "3767251",
    "neo_reference_id": "3767251",
    "name": "(2017 BF32)",
    "designation": "2017 BF32",
    "nasa_jpl_url": "http://ssd.jpl.nasa.gov/sbdb.cgi?sstr=3767251",
    "absolute_magnitude_h": 24.1,
    "estimated_diameter": {
        "kilometers": {
            "estimated_diameter_min": 0.040230458,
            "estimated_diameter_max": 0.0899580388
        },
        "meters": {
            "estimated_diameter_min": 40.2304579834,
            "estimated_diameter_max": 89.9580388169
        },
        "miles": {
            "estimated_diameter_min": 0.0249980399,
            "estimated_diameter_max": 0.0558973165
        },
        "feet": {
            "estimated_diameter_min": 131.9896957704,
            "estimated_diameter_max": 295.1379320721
        }
    },
    "is_potentially_hazardous_asteroid": false,
    "close_approach_data": [
        {
            "close_approach_date": "2017-01-04",
            "close_approach_date_full": "2017-Jan-04 03:31",
            "epoch_date_close_approach": 1483500660000,
            "relative_velocity": {
                "kilometers_per_second": "15.2968876043",
                "kilometers_per_hour": "55068.7953755952",
                "miles_per_hour": "34217.6078821303"
            },
            "miss_distance": {
                "astronomical": "0.0421461267",
                "lunar": "16.3948432863",
                "kilometers": "6304970.783070129",
                "miles": "3917727.1771766202"
            },
            "orbiting_body": "Earth"
        }
    ],
    "orbital_data": {
        "orbit_id": "3",
        "orbit_determination_date": "2017-04-06 08:20:37",
        "first_observation_date": "2017-01-26",
        "last_observation_date": "2017-01-31",
        "data_arc_in_days": 5,
        "observations_used": 14,
        "orbit_uncertainty": "9",
        "minimum_orbit_intersection": ".00144326",
        "jupiter_tisserand_invariant": "3.441",
        "epoch_osculation": "2457782.5",
        "eccentricity": ".6316798617490033",
        "semi_major_axis": "2.121717682591417",
        "inclination": "3.175079752475742",
        "ascending_node_longitude": "154.2160152025629",
        "orbital_period": "1128.83332142416",
        "perihelion_distance": ".7814713501816551",
        "perihelion_argument": "247.1383730052585",
        "aphelion_distance": "3.461964015001179",
        "perihelion_time": "2457717.356703400884",
        "mean_anomaly": "20.77506601780212",
        "mean_motion": ".3189133357135636",
        "equinox": "J2000",
        "orbit_class": {
            "orbit_class_type": "APO",
            "orbit_class_description": "Near-Earth asteroid orbits which cross the Earth’s orbit similar to that of 1862 Apollo",
            "orbit_class_range": "a (semi-major axis) > 1.0 AU; q (perihelion) < 1.017 AU"
        }
    },
    "is_sentry_object": false
}